[{"OBJECT_NAME":"STARLINK-31940","OBJECT_ID":"2024-098R","EPOCH":"2026-03-09T13:19:36.161760","MEAN_MOTION":15.27575351,"ECCENTRICITY":5.207e-5,"INCLINATION":43.0013,"RA_OF_ASC_NODE":271.1418,"ARG_OF_PERICENTER":241.0178,"MEAN_ANOMALY":119.0622,"EPHEMERIS_TYPE":0,"CLASSIFICATION_TYPE":"U","NORAD_CAT_ID":59873,"ELEMENT_SET_NO":999,"REV_AT_EPOCH":10191,"BSTAR":1.7422101e-5,"MEAN_MOTION_DOT":2.18e-6,"MEAN_MOTION_DDOT":0},{"OBJECT_NAME":"SL-19 R\/B","OBJECT_ID":"2011-005B","EPOCH":"2026-03-09T21:50:35.538720","MEAN_MOTION":15.57556472,"ECCENTRICITY":0.01260184,"INCLINATION":99.3438,"RA_OF_ASC_NODE":178.5978,"ARG_OF_PERICENTER":174.8144,"MEAN_ANOMALY":185.4445,"EPHEMERIS_TYPE":0,"CLASSIFICATION_TYPE":"U","NORAD_CAT_ID":37363,"ELEMENT_SET_NO":999,"REV_AT_EPOCH":82354,"BSTAR":0.00054776137,"MEAN_MOTION_DOT":0.00058791,"MEAN_MOTION_DDOT":0}]
